NORAD_CAT_ID,OBJECT_NAME,OBJECT_TYPE,EPOCH,MEAN_MOTION,ECCENTRICITY,INCLINATION,RA_OF_ASC_NODE,ARG_OF_PERICENTER,MEAN_ANOMALY,BSTAR,MEAN_MOTION_DOT,MEAN_MOTION_DDOT,TLE_LINE0,TLE_LINE1,TLE_LINE2,SEMIMAJOR_AXIS,PERIOD,APOGEE,PERIGEE,DECAYED
49441.0,STARLINK-3128,PAYLOAD,2022-06-03 14:12:24,15.08844297,0.000229,53.2196,262.1717,31.2977,328.8151,-2.9533000000000014e-05,-7.58e-06,0.0,0 STARLINK-3128,1 49441U 21104AK  22154.59195570 -.00000758  00000-0 -29533-4 0  9993,2 49441  53.2196 262.1717 0002290  31.2977 328.8151 15.08844297 31323,6917.8669999999975,95.437,541.316,538.148,0.0
49441.0,STARLINK-3128,PAYLOAD,2022-06-03 15:47:48,15.08845056,0.0002307,53.2195,261.8741,31.79,328.3231,-2.3916e-05,-6.69e-06,0.0,0 STARLINK-3128,1 49441U 21104AK  22154.65819488 -.00000669  00000-0 -23916-4 0  9991,2 49441  53.2195 261.8741 0002307  31.7900 328.3231 15.08845056 31334,6917.865,95.437,541.326,538.134,0.0
49441.0,STARLINK-3128,PAYLOAD,2022-06-04 10:52:25,15.08841328,0.0002347,53.2193,258.3058,32.7488,327.3649,0.00013814,1.911e-05,0.0,0 STARLINK-3128,1 49441U 21104AK  22155.45306950  .00001911  00000-0  13814-3 0  9999,2 49441  53.2193 258.3058 0002347  32.7488 327.3649 15.08841328 32533,6917.876,95.437,541.365,538.118,0.0
49441.0,STARLINK-3128,PAYLOAD,2022-06-04 14:03:11,15.08839292,0.0002369,53.2194,257.7109,33.081,327.033,0.00011636,1.564e-05,0.0,0 STARLINK-3128,1 49441U 21104AK  22155.58555178  .00001564  00000-0  11636-3 0  9995,2 49441  53.2194 257.7109 0002369  33.0810 327.0330 15.08839292 31474,6917.8830000000025,95.438,541.386,538.109,0.0
49441.0,STARLINK-3128,PAYLOAD,2022-06-05 22:00:00,15.08876826,0.0002409,53.2166,251.7371,34.6505,359.8425,-0.0046346,-0.00073375,0.0,0 STARLINK-3128,1 49441U 21104AK  22156.91667824 -.00073375  00000-0 -46346-2 0  9991,2 49441  53.2166 251.7371 0002409  34.6505 359.8425 15.08876826 32766,6917.768,95.435,541.299,537.966,0.0
49441.0,STARLINK-3128,PAYLOAD,2022-06-06 14:00:01,15.08825671,0.0002481,53.2167,248.7454,34.7859,22.8999,0.00029617,4.427e-05,0.0,0 STARLINK-3128,1 49441U 21104AK  22157.58334491  .00004427  00000-0  29617-3 0  9999,2 49441  53.2167 248.7454 0002481  34.7859  22.8999 15.08825671 32864,6917.924,95.438,541.506,538.073,0.0
49441.0,STARLINK-3128,PAYLOAD,2022-06-06 18:30:55,15.08835682,0.0002362,53.2189,247.8983,35.9644,324.1507,1.7149e-06,-2.61e-06,0.0,0 STARLINK-3128,1 49441U 21104AK  22157.77147636 -.00000261  00000-0  17149-5 0  9995,2 49441  53.2189 247.8983 0002362  35.9644 324.1507 15.08835682 31807,6917.894,95.438,541.393,538.125,0.0
49441.0,STARLINK-3128,PAYLOAD,2022-06-07 12:00:09,15.08846821,0.0002329,53.2188,244.6274,35.7448,324.37,2.5499e-05,1.18e-06,0.0,0 STARLINK-3128,1 49441U 21104AK  22158.50010906  .00000118  00000-0  25499-4 0  9992,2 49441  53.2188 244.6274 0002329  35.7448 324.3700 15.08846821 32992,6917.86,95.437,541.336,538.113,0.0
49441.0,STARLINK-3128,PAYLOAD,2022-06-07 15:10:55,15.08849073,0.0002409,53.2188,244.0329,37.1223,322.9936,4.8261e-05,4.8e-06,0.0,0 STARLINK-3128,1 49441U 21104AK  22158.63258647  .00000480  00000-0  48261-4 0  9996,2 49441  53.2188 244.0329 0002409  37.1223 322.9936 15.08849073 31933,6917.853,95.437,541.384,538.0509999999998,0.0
49441.0,STARLINK-3128,PAYLOAD,2022-06-08 11:50:56,15.08842308,0.0002422,53.2185,240.1671,38.2946,321.8218,1.8447e-05,5e-08,0.0,0 STARLINK-3128,1 49441U 21104AK  22159.49370798  .00000005  00000-0  18447-4 0  9999,2 49441  53.2185 240.1671 0002422  38.2946 321.8218 15.08842308 32066,6917.873000000001,95.437,541.414,538.063,0.0
49441.0,STARLINK-3128,PAYLOAD,2022-06-08 15:01:42,15.08837999,0.0002459,53.2186,239.5729,37.7652,322.3512,4.7605e-05,4.69e-06,0.0,0 STARLINK-3128,1 49441U 21104AK  22159.62618976  .00000469  00000-0  47605-4 0  9999,2 49441  53.2186 239.5729 0002459  37.7652 322.3512 15.08837999 33166,6917.887,95.438,541.453,538.05,0.0
49441.0,STARLINK-3128,PAYLOAD,2022-06-09 11:41:44,15.08834684,0.0002537,53.2187,235.7078,39.7598,320.358,-4.7135e-05,-1.038e-05,0.0,0 STARLINK-3128,1 49441U 21104AK  22160.48731586 -.00001038  00000-0 -47135-4 0  9991,2 49441  53.2187 235.7078 0002537  39.7598 320.3580 15.08834684 32216,6917.897,95.438,541.5169999999998,538.007,0.0
49441.0,STARLINK-3128,PAYLOAD,2022-06-09 14:52:30,15.08833914,0.0002472,53.2186,235.1124,36.9666,323.1496,-9.6083e-05,-1.817e-05,0.0,0 STARLINK-3128,1 49441U 21104AK  22160.61979818 -.00001817  00000-0 -96083-4 0  9999,2 49441  53.2186 235.1124 0002472  36.9666 323.1496 15.08833914 33318,6917.899,95.438,541.474,538.054,0.0
49441.0,STARLINK-3128,PAYLOAD,2022-06-10 05:10:58,15.08837141,0.0002449,53.2183,232.4359,34.8686,325.2466,4.7372e-06,-2.13e-06,0.0,0 STARLINK-3128,1 49441U 21104AK  22161.21595297 -.00000213  00000-0  47372-5 0  9997,2 49441  53.2183 232.4359 0002449  34.8686 325.2466 15.08837141 33404,6917.889,95.438,541.448,538.06,0.0
49441.0,STARLINK-3128,PAYLOAD,2022-06-10 11:32:30,15.08839315,0.0002483,53.2182,231.247,35.8818,324.2341,3.0149e-05,1.91e-06,0.0,0 STARLINK-3128,1 49441U 21104AK  22161.48091134  .00000191  00000-0  30149-4 0  9994,2 49441  53.2182 231.2470 0002483  35.8818 324.2341 15.08839315 32360,6917.882,95.438,541.465,538.03,0.0
49441.0,STARLINK-3128,PAYLOAD,2022-06-10 21:04:49,15.08843111,0.0002499,53.2184,229.4634,36.2371,323.879,3.5529e-05,2.77e-06,0.0,0 STARLINK-3128,1 49441U 21104AK  22161.87834893  .00000277  00000-0  35529-4 0  9996,2 49441  53.2184 229.4634 0002499  36.2371 323.8790 15.08843111 32428,6917.871,95.437,541.465,538.007,0.0
49441.0,STARLINK-3128,PAYLOAD,2022-06-11 11:23:18,15.088247400000002,0.000247,53.218,226.7872,35.0108,325.1046,3.9309e-07,-2.82e-06,0.0,0 STARLINK-3128,1 49441U 21104AK  22162.47452383 -.00000282  00000-0  39309-6 0  9992,2 49441  53.2180 226.7872 0002470  35.0108 325.1046 15.08824740 33597,6917.927,95.439,541.501,538.0830000000002,0.0
49441.0,STARLINK-3128,PAYLOAD,2022-06-11 20:55:37,15.08829557,0.0002455,53.2184,225.0036,35.8193,324.2964,7.8768e-07,-2.76e-06,0.0,0 STARLINK-3128,1 49441U 21104AK  22162.87196392 -.00000276  00000-0  78768-6 0  9996,2 49441  53.2184 225.0036 0002455  35.8193 324.2964 15.08829557 32577,6917.9119999999975,95.438,541.476,538.0790000000002,0.0
49441.0,STARLINK-3128,PAYLOAD,2022-06-12 04:52:33,15.08835205,0.0002438,53.2182,223.5166,35.3899,324.7255,-1.3742e-06,-3.1e-06,0.0,0 STARLINK-3128,1 49441U 21104AK  22163.20316217 -.00000310  00000-0 -13742-5 0  9994,2 49441  53.2182 223.5166 0002438  35.3899 324.7255 15.08835205 33702,6917.895,95.438,541.447,538.073,0.0
49441.0,STARLINK-3128,PAYLOAD,2022-06-12 11:14:05,15.08837017,0.0002406,53.2183,222.3274,36.1584,323.9571,1.1916e-05,-9.9e-07,0.0,0 STARLINK-3128,1 49441U 21104AK  22163.46812121 -.00000099  00000-0  11916-4 0  9990,2 49441  53.2183 222.3274 0002406  36.1584 323.9571 15.08837017 32664,6917.89,95.438,541.419,538.09,0.0
49441.0,STARLINK-3128,PAYLOAD,2022-06-12 20:46:24,15.08842192,0.0002471,53.2182,220.5432,36.0525,324.0634,1.4531e-05,-5.7e-07,0.0,0 STARLINK-3128,1 49441U 21104AK  22163.86555865 -.00000057  00000-0  14531-4 0  9993,2 49441  53.2182 220.5432 0002471  36.0525 324.0634 15.08842192 32724,6917.874,95.437,541.448,538.029,0.0
49441.0,STARLINK-3128,PAYLOAD,2022-06-13 03:07:56,15.08845745,0.0002426,53.2182,219.3534,36.447,323.6687,4.3542e-05,4.05e-06,0.0,0 STARLINK-3128,1 49441U 21104AK  22164.13051485  .00000405  00000-0  43542-4 0  9993,2 49441  53.2182 219.3534 0002426  36.4470 323.6687 15.08845745 33840,6917.863,95.437,541.406,538.05,0.0
49441.0,STARLINK-3128,PAYLOAD,2022-06-13 11:04:51,15.08842451,0.0002509,53.2181,217.8666,35.8636,324.2525,0.00016552,2.347e-05,0.0,0 STARLINK-3128,1 49441U 21104AK  22164.46171296  .00002347  00000-0  16552-3 0  9999,2 49441  53.2181 217.8666 0002509  35.8636 324.2525 15.08842451 32812,6917.873000000001,95.437,541.474,538.002,0.0
49441.0,STARLINK-3128,PAYLOAD,2022-06-13 20:37:10,15.08846745,0.0002618,53.218,216.0822,34.7138,325.4024,0.00015749,2.219e-05,0.0,0 STARLINK-3128,1 49441U 21104AK  22164.85914982  .00002219  00000-0  15749-3 0  9994,2 49441  53.2180 216.0822 0002618  34.7138 325.4024 15.08846745 32875,6917.86,95.437,541.536,537.914,0.0
49441.0,STARLINK-3128,PAYLOAD,2022-06-14 12:31:02,15.08836831,0.0002503,53.218,213.1107,35.1513,324.9644,1.4392e-05,-5.9e-07,0.0,0 STARLINK-3128,1 49441U 21104AK  22165.52156039 -.00000059  00000-0  14392-4 0  9995,2 49441  53.2180 213.1107 0002503  35.1513 324.9644 15.08836831 34053,6917.89,95.438,541.487,538.024,0.0
49441.0,STARLINK-3128,PAYLOAD,2022-06-15 09:11:02,15.08893108,0.00026,53.2177,209.2453,29.0077,331.1059,-0.00079295,-0.00012905,0.0,0 STARLINK-3128,1 49441U 21104AK  22166.38267206 -.00012905  00000-0 -79295-3 0  9995,2 49441  53.2177 209.2453 0002600  29.0077 331.1059 15.08893108 34188,6917.718000000003,95.434,541.382,537.784,0.0
49441.0,STARLINK-3128,PAYLOAD,2022-06-15 20:18:45,15.08859643,0.0002385,53.2181,207.1633,35.5377,324.5774,-0.00026652,-4.53e-05,0.0,0 STARLINK-3128,1 49441U 21104AK  22166.84635426 -.00004530  00000-0 -26652-3 0  9993,2 49441  53.2181 207.1633 0002385  35.5377 324.5774 15.08859643 34259,6917.82,95.436,541.335,538.035,0.0
49441.0,STARLINK-3128,PAYLOAD,2022-06-16 01:04:54,15.08843594,0.00026,53.2176,206.2708,33.4321,326.6835,-9.7473e-07,-3.04e-06,0.0,0 STARLINK-3128,1 49441U 21104AK  22167.04507673 -.00000304  00000-0 -97473-6 0  9995,2 49441  53.2176 206.2708 0002600  33.4321 326.6835 15.08843594 33205,6917.869000000002,95.437,541.533,537.936,0.0
49441.0,STARLINK-3128,PAYLOAD,2022-06-19 10:09:35,15.08825708,0.0002669,53.2179,191.1057,38.961,321.1574,-2.778e-05,-7.299999999999999e-06,0.0,0 STARLINK-3128,1 49441U 21104AK  22170.42333243 -.00000730  00000-0 -27780-4 0  9996,2 49441  53.2179 191.1057 0002669  38.9610 321.1574 15.08825708 33716,6917.924,95.438,541.635,537.943,0.0
